{"type": "FeatureCollection", "crs": {"type": "name", "properties": {"name": "urn:ogc:def:crs:OGC:1.3:CRS84"}}, "features": [{"type": "Feature", "properties": {"element_type": "way", "osmid": 702817318, "building": "yes", "addr:city": "Glendale", "addr:country": null, "addr:postcode": "85301", "addr:state": "AZ", "addr:housenumber": "4338", "addr:street": "West Glendale Avenue", "amenity": "fast_food", "healthcare": null, "name": "KFC", "brand": "KFC", "brand:wikidata": "Q524757", "brand:wikipedia": "en:KFC", "dispensing": null, "drive_through": null, "opening_hours": null, "phone": null, "building:levels": null, "shop": null, "parking": null, "layer": null, "cuisine": "chicken", "delivery": null, "smoking": null, "takeaway": "yes", "denomination": null, "religion": null, "colour": null, "generator:method": null, "generator:output:electricity": null, "generator:source": null, "generator:type": null, "power": null, "roof:material": null, "alt_name": "Kentucky Fried Chicken", "total_area": 326.27859185793784, "centroid_lat": 33.538771700000005, "centroid_lon": -112.1531448, "stroke": "#7fff00"}, "geometry": {"type": "Polygon", "coordinates": [[[-112.1532059, 33.5389001], [-112.1530827, 33.5388997], [-112.1530837, 33.5386433], [-112.1532069, 33.5386437], [-112.1532059, 33.5389001]]]}}]}